{
  "Hella Direct Orders": {
    "Alambika": {
      "address": "215 Saint-Zotique",
      "city": "West Montreal",
      "state": "Quebec",
      "zip": "H2V 4S23"
    },
    "Amanti Vino": {
      "address": "62a South Street",
      "city": "Morristown",
      "state": "NJ",
      "zip": "7964"
    },
    "Andale Market": {
      "address": "5232 N. Clark St.",
      "city": "Chicago",
      "state": "IL",
      "zip": "60640"
    },
    "Astor Wines & Spirits": {
      "address": "399 Lafayette Street",
      "city": "New York",
      "state": "NY",
      "zip": "10003"
    },
    "Astoria Bier And Cheese": {
      "address": "34-14 Broadway",
      "city": "Astoria",
      "state": "NY",
      "zip": "11106"
    },
    "Brier Creek Ale House": {
      "address": "7981 Skyland Ridge Pkwy",
      "city": "Raleigh",
      "state": "NC",
      "zip": "27617"
    },
    "BB Riverboats": {
      "address": "101 Riverboats Row",
      "city": "Newport",
      "state": "KY",
      "zip": "41071-1069"
    },
    "BevMo! Goodyear": {
      "address": "15405 W. McDowell Rd",
      "city": "Goodyear",
      "state": "AZ",
      "zip": "85395-2525"
    },
    "BevMo! Peoria": {
      "address": "24650 N. Lake Pleasant Pkwy Suite 104",
      "city": "Peoria",
      "state": "AZ",
      "zip": "85383"
    },
    "Bitter Pops": {
      "address": "3345 N. Lincoln Ave.",
      "city": "Chicago",
      "state": "IL",
      "zip": "60657"
    },
    "BKLYN Larder": {
      "address": "228 Flatbush Avenue",
      "city": "Brooklyn",
      "state": "NY",
      "zip": "11217"
    },
    "Bottlerocket Wine & Spirit": {
      "address": "5 W 19th Street",
      "city": "New York",
      "state": "NY",
      "zip": "10011"
    },
    "Campbell & Co.": {
      "address": "502 Lorimer St",
      "city": "Brooklyn",
      "state": "NY",
      "zip": "11211"
    },
    "Casa Guadalupe": {
      "address": "2909 Mission Street",
      "city": "San Francisco",
      "state": "CA",
      "zip": "94110"
    },
    "Catskills Regional Harvest": {
      "address": "27905 State Highway 28",
      "city": "Andes",
      "state": "NY",
      "zip": "13731"
    },
    "Celebration Park": {
      "address": "2880 Becca Ave",
      "city": "Naples",
      "state": "FL",
      "zip": "34112"
    },
    "Cellar Door": {
      "address": "1 North Main St",
      "city": "Ipswich",
      "state": "MA",
      "zip": "1983"
    },
    "Chelsea Market Baskets - Jersey City": {
      "address": "234 16th Street",
      "city": "Jersey City",
      "state": "NJ",
      "zip": "7310"
    },
    "Cigars International, Tampa Super-Store": {
      "address": "10660 Palm River Rd ",
      "city": "Tampa",
      "state": "FL",
      "zip": "33619-4571"
    },
    "Collins & Coupe": {
      "address": "2876 El Cajon Blvd #100",
      "city": "San Diego",
      "state": "CA",
      "zip": "92104"
    },
    "Di Bruno Bros. - Rittenhouse": {
      "address": "1730 Chestnut St",
      "city": "Philadelphia",
      "state": "PA",
      "zip": "19103"
    },
    "Di Bruno Bros. - Morris St": {
      "address": "2514 Morris St",
      "city": "Philadelphia",
      "state": "PA",
      "zip": "19145"
    },
    "Everyman Espresso Park Slope": {
      "address": "162 5th Ave",
      "city": "Brooklyn",
      "state": "NY",
      "zip": "11217"
    },
    "Festival Cafe": {
      "address": "1155 2nd Avenue",
      "city": "New York",
      "state": "NY",
      "zip": "10065"
    },
    "Flag Hill Distillery & Winery": {
      "address": "297 North River Road",
      "city": "Lee",
      "state": "NH",
      "zip": "3861"
    },
    "Food Garden Market": {
      "address": "608 Franklin Ave",
      "city": "Brooklyn",
      "state": "NY",
      "zip": "11238"
    },
    "General Irving": {
      "address": "1210 Halsey Street",
      "city": "Brooklyn",
      "state": "NY",
      "zip": "11207"
    },
    "Golden Years": {
      "address": "221 N 4th St",
      "city": "Brooklyn",
      "state": "NY",
      "zip": "11211"
    },
    "Haworth Wine & Spirits": {
      "address": "155 Terrace Street",
      "city": "Haworth",
      "state": "NJ",
      "zip": "7641"
    },
    "Healthy Living Market & Cafe VT": {
      "address": "222 Dorset St",
      "city": "South Burlington",
      "state": "VT",
      "zip": "5403"
    },
    "Herman's Coffee": {
      "address": "1313 S 3rd Street",
      "city": "Philadelphia",
      "state": "PA",
      "zip": "19147"
    },
    "Hilton Garden Inn Kalamazoo": {
      "address": "303 N Rose St",
      "city": "St. Kalamazoo",
      "state": "MI",
      "zip": "49007"
    },
    "Home Goods of Margaretville": {
      "address": "784 Main Street",
      "city": "Margaretville",
      "state": "NY",
      "zip": "12455"
    },
    "Hudson Valley Distillers": {
      "address": "1727 Route 9",
      "city": "Germantown",
      "state": "NY",
      "zip": "12526"
    },
    "LocoPops": {
      "address": "2618 Hillsborough Road ",
      "city": "Durham",
      "state": "NC",
      "zip": "27705"
    },
    "Loggerhead Distillery": {
      "address": "5399 Glenlake Place",
      "city": "Sanford",
      "state": "FL",
      "zip": "32771"
    },
    "Manzanita Fresh Foods": {
      "address": "730 Manzanita Ave",
      "city": "Manzanita",
      "state": "OR",
      "zip": "97130"
    },
    "Maxwells on Main": {
      "address": "37 N Main St",
      "city": "Doylestown",
      "state": "PA",
      "zip": "18901"
    },
    "Mekelburg's Clinton Hill": {
      "address": "293 Grand Avenue",
      "city": "Brooklyn",
      "state": "NY",
      "zip": "11238"
    },
    "The Melting Pot - Raleigh": {
      "address": "3100 Wake Forest Rd",
      "city": "Raleigh",
      "state": "NC",
      "zip": "27609"
    },
    "Kickin' Crab - Meridian": {
      "address": "207 S. Frontage Rd ",
      "city": "Meridian",
      "state": "MS",
      "zip": "39301-6105"
    },
    "Metro Home Style": {
      "address": "689 North Clinton Street",
      "city": "Syracuse",
      "state": "NY",
      "zip": "13204"
    },
    "Mountain Mama Natural Foods": {
      "address": "1625 Suite A. West Uintah St",
      "city": "Colorado Springs",
      "state": "CO",
      "zip": "80904"
    },
    "Nori's Village Market": {
      "address": "138 Church Street",
      "city": "Saranac Lake",
      "state": "NY",
      "zip": "12983"
    },
    "Oregon Spirit Distillers Tasting Room": {
      "address": "740 Northeast 1st Street",
      "city": "Bend",
      "state": "OR",
      "zip": "97701"
    },
    "Partners Coffee": {
      "address": "125 North 6 Street",
      "city": "Brooklyn",
      "state": "NY",
      "zip": "11249"
    },
    "Porter": {
      "address": "1100 Avenue",
      "city": "Weekhawken",
      "state": "NJ",
      "zip": "7086"
    },
    "Queens Room": {
      "address": "3602 Ditmars Blvd",
      "city": "Astoria",
      "state": "NY",
      "zip": "11105"
    },
    "Rebel House": {
      "address": "297 E. Palmetto Park Rd",
      "city": "Boca Raton",
      "state": "FL",
      "zip": "33432-5013"
    },
    "Red Ginger Dimsum & Tapas": {
      "address": "82 PATTON AVENUE",
      "city": "Asheville",
      "state": "NC",
      "zip": "28801"
    },
    "Red Robin - Greenville": {
      "address": "1125 Woodruff Rd Suite 1400",
      "city": "Greenville",
      "state": "SC",
      "zip": "29607-4113"
    },
    "Sahadi's Atlantic": {
      "address": "187 Atlantic Avenue",
      "city": "Brooklyn",
      "state": "NY",
      "zip": "11201"
    },
    "Sahadi's Industry City": {
      "address": "34-35th St Building 4, Suite 04-1-B12",
      "city": "Brooklyn",
      "state": "NY",
      "zip": "11232"
    },
    "Schaller & Weber": {
      "address": "1654 2nd Avenue",
      "city": "New York",
      "state": "NY",
      "zip": "10028"
    },
    "The Meat Market - Baraboo": {
      "address": "700 Lincoln Avenue",
      "city": "Baraboo",
      "state": "WI",
      "zip": "53913"
    },
    "Slope Cellars": {
      "address": "436 7th Avenue",
      "city": "Brooklyn",
      "state": "NY",
      "zip": "11215"
    },
    "Hampton Inn Key Largo": {
      "address": "102400 Overseas",
      "city": "Key Largo",
      "state": "FL",
      "zip": "33037"
    },
    "Snowshoe Mountain Resort": {
      "address": "10 Snowshoe Dr",
      "city": "Slatyfork",
      "state": "WV",
      "zip": "26209"
    },
    "Spirited Away": {
      "address": "153 Ludlow Street",
      "city": "New York",
      "state": "NY",
      "zip": "10002"
    },
    "SquareWine & Spirits": {
      "address": "24-20 Jackson Avenue",
      "city": "Long Island City",
      "state": "NY",
      "zip": "11101"
    },
    "Steve's Snappin' Dogs": {
      "address": "Denver International Airport, Concourse B, 8500 Pe\u00f1a Blvd",
      "city": "Denver",
      "state": "CO",
      "zip": "80249"
    },
    "Sussex Wines & Spirits - DIA": {
      "address": "300 E 42nd Street",
      "city": "New York",
      "state": "NY",
      "zip": "10017"
    },
    "Taste NY at the Capital Region Welcome Center": {
      "address": "I-87N - Milepost 127 C/O Capital Region Welcome Center",
      "city": "Hannacroix",
      "state": "NY",
      "zip": "12087"
    },
    "Taste NY Market at Todd Hill": {
      "address": "275 Manchester Rd Unit 178 ",
      "city": "Poughkeepsie",
      "state": "NY",
      "zip": "12603"
    },
    "The Gilded Grape": {
      "address": "727 Church Avenue",
      "city": "Brooklyn",
      "state": "NY",
      "zip": "11218"
    },
    "The Jones Assembly": {
      "address": "901 W. Sheridan Ave",
      "city": "Oklahoma City",
      "state": "OK",
      "zip": "73106"
    },
    "The Keg Steakhouse + Bar - Chandler": {
      "address": "3065 W. Chandler Blvd",
      "city": "Chandler",
      "state": "AZ",
      "zip": "85226-5220"
    },
    "The Savory Pantry": {
      "address": "486 Broadway",
      "city": "Saratoga Springs",
      "state": "NY",
      "zip": "12866"
    },
    "The Stanford Steakhouse": {
      "address": "734 Station Street",
      "city": "Waynesboro",
      "state": "MS",
      "zip": "39367"
    },
    "Tuthilltown Spirits Distillery": {
      "address": "14 Grist Mill Lane",
      "city": "Gardiner",
      "state": "NY",
      "zip": "12525"
    },
    "Vino By The Sea": {
      "address": "190 Beach 69th Street",
      "city": "Averne",
      "state": "NY",
      "zip": "11692"
    },
    "Vino Fine Wine & Spirits": {
      "address": "121 E. 27th Street",
      "city": "New York",
      "state": "NY",
      "zip": "10016"
    },
    "Wahlburgers - Cleveland": {
      "address": "2105 Ontario St",
      "city": "Cleveland",
      "state": "OH",
      "zip": "44115"
    },
    "Whisk NYC": {
      "address": "197 Atlantic Avenue",
      "city": "Brooklyn",
      "state": "NY",
      "zip": "11201"
    },
    "White's Liquor Store": {
      "address": "771 Montauk Hwy",
      "city": "Montauk",
      "state": "NY",
      "zip": "11954"
    }
  },
  "DPI PNW & Rocky Mountains": {},
  "DPI West": {},
  "KeHE Full POD Vendor Report": {},
  "Eagle Rock - Hella Depletions - 12.15": {},
  "Eagle Rock - Hella Depletions": {},
  "UNFI Nationwide Individual by Store Sales Report": {},
  "Whole Foods Stop Selling stores": {},
  "Momentum": {},
  "Faire List": {},
  "SGWS Off-Premise Accounts": {},
  "Ruby Wine Account List": {},
  "FEDWAY ASSOCIATES": {},
  "Whole Foods Top Selling stores": {},
  "Associated Buyers": {},
  "SGWS Nationwide Individual by Store Sales Report": {},
  "Walmart": {},
  "Baldor YOY": {}
}